<?xml version="1.0" encoding="UTF-8"?>
<ndm xmlns:xsi="http://www.w3.org/2001/XMLSchema-instance" xsi:noNamespaceSchemaLocation="https://sanaregistry.org/r/ndmxml_unqualified/ndmxml-2.0.0-master-2.0.xsd">
<omm id="CCSDS_OMM_VERS" version="2.0">
<header><CREATION_DATE/><ORIGINATOR/></header><body><segment><metadata><OBJECT_NAME>ONEWEB-0115</OBJECT_NAME><OBJECT_ID>2021-025A</OBJECT_ID><CENTER_NAME>EARTH</CENTER_NAME><REF_FRAME>TEME</REF_FRAME><TIME_SYSTEM>UTC</TIME_SYSTEM><MEAN_ELEMENT_THEORY>SGP4</MEAN_ELEMENT_THEORY></metadata><data><meanElements><EPOCH>2025-07-28T11:55:50.940768</EPOCH><MEAN_MOTION>13.13468860</MEAN_MOTION><ECCENTRICITY>.0001826</ECCENTRICITY><INCLINATION>87.8961</INCLINATION><RA_OF_ASC_NODE>24.5183</RA_OF_ASC_NODE><ARG_OF_PERICENTER>92.1161</ARG_OF_PERICENTER><MEAN_ANOMALY>268.0178</MEAN_ANOMALY></meanElements><tleParameters><EPHEMERIS_TYPE>0</EPHEMERIS_TYPE><CLASSIFICATION_TYPE>U</CLASSIFICATION_TYPE><NORAD_CAT_ID>48042</NORAD_CAT_ID><ELEMENT_SET_NO>999</ELEMENT_SET_NO><REV_AT_EPOCH>21110</REV_AT_EPOCH><BSTAR>-.16312E-3</BSTAR><MEAN_MOTION_DOT>-.47E-6</MEAN_MOTION_DOT><MEAN_MOTION_DDOT>0</MEAN_MOTION_DDOT></tleParameters></data></segment></body></omm>
<omm id="CCSDS_OMM_VERS" version="2.0">
<header><CREATION_DATE/><ORIGINATOR/></header><body><segment><metadata><OBJECT_NAME>ONEWEB-0152</OBJECT_NAME><OBJECT_ID>2021-025B</OBJECT_ID><CENTER_NAME>EARTH</CENTER_NAME><REF_FRAME>TEME</REF_FRAME><TIME_SYSTEM>UTC</TIME_SYSTEM><MEAN_ELEMENT_THEORY>SGP4</MEAN_ELEMENT_THEORY></metadata><data><meanElements><EPOCH>2025-07-28T17:44:25.515744</EPOCH><MEAN_MOTION>13.13468652</MEAN_MOTION><ECCENTRICITY>.000192</ECCENTRICITY><INCLINATION>87.8963</INCLINATION><RA_OF_ASC_NODE>24.4844</RA_OF_ASC_NODE><ARG_OF_PERICENTER>91.5019</ARG_OF_PERICENTER><MEAN_ANOMALY>268.6330</MEAN_ANOMALY></meanElements><tleParameters><EPHEMERIS_TYPE>0</EPHEMERIS_TYPE><CLASSIFICATION_TYPE>U</CLASSIFICATION_TYPE><NORAD_CAT_ID>48043</NORAD_CAT_ID><ELEMENT_SET_NO>999</ELEMENT_SET_NO><REV_AT_EPOCH>21110</REV_AT_EPOCH><BSTAR>-.81333E-3</BSTAR><MEAN_MOTION_DOT>-.284E-5</MEAN_MOTION_DOT><MEAN_MOTION_DDOT>0</MEAN_MOTION_DDOT></tleParameters></data></segment></body></omm>
<omm id="CCSDS_OMM_VERS" version="2.0">
<header><CREATION_DATE/><ORIGINATOR/></header><body><segment><metadata><OBJECT_NAME>ONEWEB-0153</OBJECT_NAME><OBJECT_ID>2021-025C</OBJECT_ID><CENTER_NAME>EARTH</CENTER_NAME><REF_FRAME>TEME</REF_FRAME><TIME_SYSTEM>UTC</TIME_SYSTEM><MEAN_ELEMENT_THEORY>SGP4</MEAN_ELEMENT_THEORY></metadata><data><meanElements><EPOCH>2025-07-28T11:43:39.652032</EPOCH><MEAN_MOTION>13.13469047</MEAN_MOTION><ECCENTRICITY>.000174</ECCENTRICITY><INCLINATION>87.8966</INCLINATION><RA_OF_ASC_NODE>24.5326</RA_OF_ASC_NODE><ARG_OF_PERICENTER>91.2871</ARG_OF_PERICENTER><MEAN_ANOMALY>268.8457</MEAN_ANOMALY></meanElements><tleParameters><EPHEMERIS_TYPE>0</EPHEMERIS_TYPE><CLASSIFICATION_TYPE>U</CLASSIFICATION_TYPE><NORAD_CAT_ID>48044</NORAD_CAT_ID><ELEMENT_SET_NO>999</ELEMENT_SET_NO><REV_AT_EPOCH>21105</REV_AT_EPOCH><BSTAR>.47231E-3</BSTAR><MEAN_MOTION_DOT>.185E-5</MEAN_MOTION_DOT><MEAN_MOTION_DDOT>0</MEAN_MOTION_DDOT></tleParameters></data></segment></body></omm>
<omm id="CCSDS_OMM_VERS" version="2.0">
<header><CREATION_DATE/><ORIGINATOR/></header><body><segment><metadata><OBJECT_NAME>ONEWEB-0154</OBJECT_NAME><OBJECT_ID>2021-025D</OBJECT_ID><CENTER_NAME>EARTH</CENTER_NAME><REF_FRAME>TEME</REF_FRAME><TIME_SYSTEM>UTC</TIME_SYSTEM><MEAN_ELEMENT_THEORY>SGP4</MEAN_ELEMENT_THEORY></metadata><data><meanElements><EPOCH>2025-07-29T00:26:39.041088</EPOCH><MEAN_MOTION>13.13468813</MEAN_MOTION><ECCENTRICITY>.0001822</ECCENTRICITY><INCLINATION>87.8963</INCLINATION><RA_OF_ASC_NODE>24.4258</RA_OF_ASC_NODE><ARG_OF_PERICENTER>89.4110</ARG_OF_PERICENTER><MEAN_ANOMALY>270.7227</MEAN_ANOMALY></meanElements><tleParameters><EPHEMERIS_TYPE>0</EPHEMERIS_TYPE><CLASSIFICATION_TYPE>U</CLASSIFICATION_TYPE><NORAD_CAT_ID>48045</NORAD_CAT_ID><ELEMENT_SET_NO>999</ELEMENT_SET_NO><REV_AT_EPOCH>21109</REV_AT_EPOCH><BSTAR>.50125E-3</BSTAR><MEAN_MOTION_DOT>.196E-5</MEAN_MOTION_DOT><MEAN_MOTION_DDOT>0</MEAN_MOTION_DDOT></tleParameters></data></segment></body></omm>
<omm id="CCSDS_OMM_VERS" version="2.0">
<header><CREATION_DATE/><ORIGINATOR/></header><body><segment><metadata><OBJECT_NAME>ONEWEB-0116</OBJECT_NAME><OBJECT_ID>2021-025E</OBJECT_ID><CENTER_NAME>EARTH</CENTER_NAME><REF_FRAME>TEME</REF_FRAME><TIME_SYSTEM>UTC</TIME_SYSTEM><MEAN_ELEMENT_THEORY>SGP4</MEAN_ELEMENT_THEORY></metadata><data><meanElements><EPOCH>2025-07-28T18:03:55.686240</EPOCH><MEAN_MOTION>13.13469403</MEAN_MOTION><ECCENTRICITY>.0001948</ECCENTRICITY><INCLINATION>87.8965</INCLINATION><RA_OF_ASC_NODE>24.4593</RA_OF_ASC_NODE><ARG_OF_PERICENTER>92.7324</ARG_OF_PERICENTER><MEAN_ANOMALY>267.4028</MEAN_ANOMALY></meanElements><tleParameters><EPHEMERIS_TYPE>0</EPHEMERIS_TYPE><CLASSIFICATION_TYPE>U</CLASSIFICATION_TYPE><NORAD_CAT_ID>48046</NORAD_CAT_ID><ELEMENT_SET_NO>999</ELEMENT_SET_NO><REV_AT_EPOCH>21119</REV_AT_EPOCH><BSTAR>-.74701E-3</BSTAR><MEAN_MOTION_DOT>-.26E-5</MEAN_MOTION_DOT><MEAN_MOTION_DDOT>0</MEAN_MOTION_DDOT></tleParameters></data></segment></body></omm>
<omm id="CCSDS_OMM_VERS" version="2.0">
<header><CREATION_DATE/><ORIGINATOR/></header><body><segment><metadata><OBJECT_NAME>ONEWEB-0150</OBJECT_NAME><OBJECT_ID>2021-025F</OBJECT_ID><CENTER_NAME>EARTH</CENTER_NAME><REF_FRAME>TEME</REF_FRAME><TIME_SYSTEM>UTC</TIME_SYSTEM><MEAN_ELEMENT_THEORY>SGP4</MEAN_ELEMENT_THEORY></metadata><data><meanElements><EPOCH>2025-07-28T12:00:42.917472</EPOCH><MEAN_MOTION>13.13469070</MEAN_MOTION><ECCENTRICITY>.0001661</ECCENTRICITY><INCLINATION>87.8962</INCLINATION><RA_OF_ASC_NODE>24.5051</RA_OF_ASC_NODE><ARG_OF_PERICENTER>96.1401</ARG_OF_PERICENTER><MEAN_ANOMALY>263.9917</MEAN_ANOMALY></meanElements><tleParameters><EPHEMERIS_TYPE>0</EPHEMERIS_TYPE><CLASSIFICATION_TYPE>U</CLASSIFICATION_TYPE><NORAD_CAT_ID>48047</NORAD_CAT_ID><ELEMENT_SET_NO>999</ELEMENT_SET_NO><REV_AT_EPOCH>21105</REV_AT_EPOCH><BSTAR>-.33269E-3</BSTAR><MEAN_MOTION_DOT>-.109E-5</MEAN_MOTION_DOT><MEAN_MOTION_DDOT>0</MEAN_MOTION_DDOT></tleParameters></data></segment></body></omm>
<omm id="CCSDS_OMM_VERS" version="2.0">
<header><CREATION_DATE/><ORIGINATOR/></header><body><segment><metadata><OBJECT_NAME>ONEWEB-0107</OBJECT_NAME><OBJECT_ID>2021-025G</OBJECT_ID><CENTER_NAME>EARTH</CENTER_NAME><REF_FRAME>TEME</REF_FRAME><TIME_SYSTEM>UTC</TIME_SYSTEM><MEAN_ELEMENT_THEORY>SGP4</MEAN_ELEMENT_THEORY></metadata><data><meanElements><EPOCH>2025-07-28T12:03:09.156384</EPOCH><MEAN_MOTION>13.13468941</MEAN_MOTION><ECCENTRICITY>.000154</ECCENTRICITY><INCLINATION>87.8964</INCLINATION><RA_OF_ASC_NODE>24.5029</RA_OF_ASC_NODE><ARG_OF_PERICENTER>84.2944</ARG_OF_PERICENTER><MEAN_ANOMALY>275.8361</MEAN_ANOMALY></meanElements><tleParameters><EPHEMERIS_TYPE>0</EPHEMERIS_TYPE><CLASSIFICATION_TYPE>U</CLASSIFICATION_TYPE><NORAD_CAT_ID>48048</NORAD_CAT_ID><ELEMENT_SET_NO>999</ELEMENT_SET_NO><REV_AT_EPOCH>21103</REV_AT_EPOCH><BSTAR>-.36461E-3</BSTAR><MEAN_MOTION_DOT>-.12E-5</MEAN_MOTION_DOT><MEAN_MOTION_DDOT>0</MEAN_MOTION_DDOT></tleParameters></data></segment></body></omm>
<omm id="CCSDS_OMM_VERS" version="2.0">
<header><CREATION_DATE/><ORIGINATOR/></header><body><segment><metadata><OBJECT_NAME>ONEWEB-0101</OBJECT_NAME><OBJECT_ID>2021-025H</OBJECT_ID><CENTER_NAME>EARTH</CENTER_NAME><REF_FRAME>TEME</REF_FRAME><TIME_SYSTEM>UTC</TIME_SYSTEM><MEAN_ELEMENT_THEORY>SGP4</MEAN_ELEMENT_THEORY></metadata><data><meanElements><EPOCH>2025-07-28T20:17:59.619552</EPOCH><MEAN_MOTION>13.13472398</MEAN_MOTION><ECCENTRICITY>.0001763</ECCENTRICITY><INCLINATION>87.8965</INCLINATION><RA_OF_ASC_NODE>24.4741</RA_OF_ASC_NODE><ARG_OF_PERICENTER>86.4115</ARG_OF_PERICENTER><MEAN_ANOMALY>273.7216</MEAN_ANOMALY></meanElements><tleParameters><EPHEMERIS_TYPE>0</EPHEMERIS_TYPE><CLASSIFICATION_TYPE>U</CLASSIFICATION_TYPE><NORAD_CAT_ID>48049</NORAD_CAT_ID><ELEMENT_SET_NO>999</ELEMENT_SET_NO><REV_AT_EPOCH>21105</REV_AT_EPOCH><BSTAR>.61395E-3</BSTAR><MEAN_MOTION_DOT>.237E-5</MEAN_MOTION_DOT><MEAN_MOTION_DDOT>0</MEAN_MOTION_DDOT></tleParameters></data></segment></body></omm>
<omm id="CCSDS_OMM_VERS" version="2.0">
<header><CREATION_DATE/><ORIGINATOR/></header><body><segment><metadata><OBJECT_NAME>ONEWEB-0113</OBJECT_NAME><OBJECT_ID>2021-025J</OBJECT_ID><CENTER_NAME>EARTH</CENTER_NAME><REF_FRAME>TEME</REF_FRAME><TIME_SYSTEM>UTC</TIME_SYSTEM><MEAN_ELEMENT_THEORY>SGP4</MEAN_ELEMENT_THEORY></metadata><data><meanElements><EPOCH>2025-07-28T14:39:16.420608</EPOCH><MEAN_MOTION>13.13976440</MEAN_MOTION><ECCENTRICITY>.0001846</ECCENTRICITY><INCLINATION>87.8962</INCLINATION><RA_OF_ASC_NODE>24.4699</RA_OF_ASC_NODE><ARG_OF_PERICENTER>94.7419</ARG_OF_PERICENTER><MEAN_ANOMALY>265.3921</MEAN_ANOMALY></meanElements><tleParameters><EPHEMERIS_TYPE>0</EPHEMERIS_TYPE><CLASSIFICATION_TYPE>U</CLASSIFICATION_TYPE><NORAD_CAT_ID>48050</NORAD_CAT_ID><ELEMENT_SET_NO>999</ELEMENT_SET_NO><REV_AT_EPOCH>21111</REV_AT_EPOCH><BSTAR>.21622E-3</BSTAR><MEAN_MOTION_DOT>.92E-6</MEAN_MOTION_DOT><MEAN_MOTION_DDOT>0</MEAN_MOTION_DDOT></tleParameters></data></segment></body></omm>

</ndm>
